SL-3 R/B                
1 13403U 82079B   26074.57277124  .00006662  00000+0  26441-3 0  9990
2 13403  81.1486 186.1314 0025263 145.2890 214.9999 15.24893813378591
SL-14 R/B               
1 13553U 82092B   26074.65266115  .00000406  00000+0  42914-4 0  9992
2 13553  82.5682 135.8222 0018799 282.3122 239.7905 14.86672080329817
SL-3 R/B                
1 13819U 83010B   26074.51962282  .00017129  00000+0  34140-3 0  9992
2 13819  81.1063 355.0993 0017453  32.1204 328.1100 15.46580957358842
SL-3 R/B                
1 14208U 83075B   26074.60580618  .00010344  00000+0  27195-3 0  9999
2 14208  97.6138  79.4076 0020708 203.5308 156.4991 15.38570416331060
COSMOS 1536             
1 14699U 84013A   26074.56406250  .00005958  00000+0  24491-3 0  9991
2 14699  82.5421 102.0096 0012416 259.9318 100.0518 15.23907149273516
SL-14 R/B               
1 14820U 84027B   26074.55148424  .00000490  00000+0  53277-4 0  9998
2 14820  82.5395 239.5138 0016920 317.6436  42.3473 14.85982877248509
SL-8 R/B                
1 15483U 85006B   26074.57220457  .00000316  00000+0  11352-3 0  9995
2 15483  74.0434 250.3226 0018193 166.5660 254.4717 14.37787561154871
SL-12 R/B(2)            
1 15772U 85042D   26074.47276125  .00000118  00000+0  74578-4 0  9998
2 15772  71.1064  75.5094 0033043 118.6118 354.8995 14.21984065115215
SL-14 R/B               
1 15945U 85069B   26074.33253991  .00000555  00000+0  59936-4 0  9996
2 15945  82.5293  19.6278 0018986 168.9588 191.2050 14.86440167173678
SL-16 R/B               
1 16182U 85097B   26074.58251279  .00000067  00000+0  57477-4 0  9991
2 16182  71.0017 128.1487 0009741 252.5025 257.8190 14.16598305 88065
SL-14 R/B               
1 16496U 86006B   26074.51004257  .00000696  00000+0  71483-4 0  9996
2 16496  82.5236 254.2575 0075105 253.1316 106.1656 14.86823562150076
COSMOS 1743             
1 16719U 86034A   26074.48382988  .00034447  00000+0  44131-3 0  9991
2 16719  82.5286  67.7466 0001739 235.7438 124.3653 15.59010173181157
