CCSDS_OMM_VERS = 2.0
CREATION_DATE  = 
ORIGINATOR     = 

OBJECT_NAME    = SL-3 R/B
OBJECT_ID      = 1982-079B
CENTER_NAME    = EARTH
REF_FRAME      = TEME
TIME_SYSTEM    = UTC
MEAN_ELEMENT_THEORY = SGP/SGP4

EPOCH          = 2026-03-15T13:44:47.435136
MEAN_MOTION    = 15.24893813
ECCENTRICITY   = .00252634
INCLINATION    = 81.1486
RA_OF_ASC_NODE = 186.1314
ARG_OF_PERICENTER = 145.2890
MEAN_ANOMALY   = 214.9999

EPHEMERIS_TYPE = 0
CLASSIFICATION_TYPE = U
NORAD_CAT_ID   = 13403
ELEMENT_SET_NO = 999
REV_AT_EPOCH   = 37859
BSTAR          = .26440825E-3
MEAN_MOTION_DOT = .6662E-4
MEAN_MOTION_DDOT = 0

CCSDS_OMM_VERS = 2.0
CREATION_DATE  = 
ORIGINATOR     = 

OBJECT_NAME    = SL-14 R/B
OBJECT_ID      = 1982-092B
CENTER_NAME    = EARTH
REF_FRAME      = TEME
TIME_SYSTEM    = UTC
MEAN_ELEMENT_THEORY = SGP/SGP4

EPOCH          = 2026-03-15T15:39:49.923360
MEAN_MOTION    = 14.86672080
ECCENTRICITY   = .00187992
INCLINATION    = 82.5682
RA_OF_ASC_NODE = 135.8222
ARG_OF_PERICENTER = 282.3122
MEAN_ANOMALY   = 239.7905

EPHEMERIS_TYPE = 0
CLASSIFICATION_TYPE = U
NORAD_CAT_ID   = 13553
ELEMENT_SET_NO = 999
REV_AT_EPOCH   = 32981
BSTAR          = .42913599E-4
MEAN_MOTION_DOT = .406E-5
MEAN_MOTION_DDOT = 0

CCSDS_OMM_VERS = 2.0
CREATION_DATE  = 
ORIGINATOR     = 

OBJECT_NAME    = SL-3 R/B
OBJECT_ID      = 1983-010B
CENTER_NAME    = EARTH
REF_FRAME      = TEME
TIME_SYSTEM    = UTC
MEAN_ELEMENT_THEORY = SGP/SGP4

EPOCH          = 2026-03-15T12:28:15.411648
MEAN_MOTION    = 15.46580957
ECCENTRICITY   = .00174537
INCLINATION    = 81.1063
RA_OF_ASC_NODE = 355.0993
ARG_OF_PERICENTER = 32.1204
MEAN_ANOMALY   = 328.1100

EPHEMERIS_TYPE = 0
CLASSIFICATION_TYPE = U
NORAD_CAT_ID   = 13819
ELEMENT_SET_NO = 999
REV_AT_EPOCH   = 35884
BSTAR          = .3413962E-3
MEAN_MOTION_DOT = .17129E-3
MEAN_MOTION_DDOT = 0

CCSDS_OMM_VERS = 2.0
CREATION_DATE  = 
ORIGINATOR     = 

OBJECT_NAME    = SL-3 R/B
OBJECT_ID      = 1983-075B
CENTER_NAME    = EARTH
REF_FRAME      = TEME
TIME_SYSTEM    = UTC
MEAN_ELEMENT_THEORY = SGP/SGP4

EPOCH          = 2026-03-15T14:32:21.653952
MEAN_MOTION    = 15.38570416
ECCENTRICITY   = .00207084
INCLINATION    = 97.6138
RA_OF_ASC_NODE = 79.4076
ARG_OF_PERICENTER = 203.5308
MEAN_ANOMALY   = 156.4991

EPHEMERIS_TYPE = 0
CLASSIFICATION_TYPE = U
NORAD_CAT_ID   = 14208
ELEMENT_SET_NO = 999
REV_AT_EPOCH   = 33106
BSTAR          = .27194881E-3
MEAN_MOTION_DOT = .10344E-3
MEAN_MOTION_DDOT = 0

CCSDS_OMM_VERS = 2.0
CREATION_DATE  = 
ORIGINATOR     = 

OBJECT_NAME    = COSMOS 1536
OBJECT_ID      = 1984-013A
CENTER_NAME    = EARTH
REF_FRAME      = TEME
TIME_SYSTEM    = UTC
MEAN_ELEMENT_THEORY = SGP/SGP4

EPOCH          = 2026-03-15T13:32:15.000000
MEAN_MOTION    = 15.23907149
ECCENTRICITY   = .00124169
INCLINATION    = 82.5421
RA_OF_ASC_NODE = 102.0096
ARG_OF_PERICENTER = 259.9318
MEAN_ANOMALY   = 100.0518

EPHEMERIS_TYPE = 0
CLASSIFICATION_TYPE = U
NORAD_CAT_ID   = 14699
ELEMENT_SET_NO = 999
REV_AT_EPOCH   = 27351
BSTAR          = .24491219E-3
MEAN_MOTION_DOT = .5958E-4
MEAN_MOTION_DDOT = 0

CCSDS_OMM_VERS = 2.0
CREATION_DATE  = 
ORIGINATOR     = 

OBJECT_NAME    = SL-14 R/B
OBJECT_ID      = 1984-027B
CENTER_NAME    = EARTH
REF_FRAME      = TEME
TIME_SYSTEM    = UTC
MEAN_ELEMENT_THEORY = SGP/SGP4

EPOCH          = 2026-03-15T13:14:08.238336
MEAN_MOTION    = 14.85982877
ECCENTRICITY   = .00169207
INCLINATION    = 82.5395
RA_OF_ASC_NODE = 239.5138
ARG_OF_PERICENTER = 317.6436
MEAN_ANOMALY   = 42.3473

EPHEMERIS_TYPE = 0
CLASSIFICATION_TYPE = U
NORAD_CAT_ID   = 14820
ELEMENT_SET_NO = 999
REV_AT_EPOCH   = 24850
BSTAR          = .53276508E-4
MEAN_MOTION_DOT = .49E-5
MEAN_MOTION_DDOT = 0

CCSDS_OMM_VERS = 2.0
CREATION_DATE  = 
ORIGINATOR     = 

OBJECT_NAME    = SL-8 R/B
OBJECT_ID      = 1985-006B
CENTER_NAME    = EARTH
REF_FRAME      = TEME
TIME_SYSTEM    = UTC
MEAN_ELEMENT_THEORY = SGP/SGP4

EPOCH          = 2026-03-15T13:43:58.474848
MEAN_MOTION    = 14.37787561
ECCENTRICITY   = .00181933
INCLINATION    = 74.0434
RA_OF_ASC_NODE = 250.3226
ARG_OF_PERICENTER = 166.5660
MEAN_ANOMALY   = 254.4717

EPHEMERIS_TYPE = 0
CLASSIFICATION_TYPE = U
NORAD_CAT_ID   = 15483
ELEMENT_SET_NO = 999
REV_AT_EPOCH   = 15487
BSTAR          = .11351926E-3
MEAN_MOTION_DOT = .316E-5
MEAN_MOTION_DDOT = 0

CCSDS_OMM_VERS = 2.0
CREATION_DATE  = 
ORIGINATOR     = 

OBJECT_NAME    = SL-12 R/B(2)
OBJECT_ID      = 1985-042D
CENTER_NAME    = EARTH
REF_FRAME      = TEME
TIME_SYSTEM    = UTC
MEAN_ELEMENT_THEORY = SGP/SGP4

EPOCH          = 2026-03-15T11:20:46.572000
MEAN_MOTION    = 14.21984065
ECCENTRICITY   = .00330432
INCLINATION    = 71.1064
RA_OF_ASC_NODE = 75.5094
ARG_OF_PERICENTER = 118.6118
MEAN_ANOMALY   = 354.8995

EPHEMERIS_TYPE = 0
CLASSIFICATION_TYPE = U
NORAD_CAT_ID   = 15772
ELEMENT_SET_NO = 999
REV_AT_EPOCH   = 11521
BSTAR          = .74577997E-4
MEAN_MOTION_DOT = .118E-5
MEAN_MOTION_DDOT = 0

CCSDS_OMM_VERS = 2.0
CREATION_DATE  = 
ORIGINATOR     = 

OBJECT_NAME    = SL-14 R/B
OBJECT_ID      = 1985-069B
CENTER_NAME    = EARTH
REF_FRAME      = TEME
TIME_SYSTEM    = UTC
MEAN_ELEMENT_THEORY = SGP/SGP4

EPOCH          = 2026-03-15T07:58:51.448224
MEAN_MOTION    = 14.86440167
ECCENTRICITY   = .00189868
INCLINATION    = 82.5293
RA_OF_ASC_NODE = 19.6278
ARG_OF_PERICENTER = 168.9588
MEAN_ANOMALY   = 191.2050

EPHEMERIS_TYPE = 0
CLASSIFICATION_TYPE = U
NORAD_CAT_ID   = 15945
ELEMENT_SET_NO = 999
REV_AT_EPOCH   = 17367
BSTAR          = .59935816E-4
MEAN_MOTION_DOT = .555E-5
MEAN_MOTION_DDOT = 0

CCSDS_OMM_VERS = 2.0
CREATION_DATE  = 
ORIGINATOR     = 

OBJECT_NAME    = SL-16 R/B
OBJECT_ID      = 1985-097B
CENTER_NAME    = EARTH
REF_FRAME      = TEME
TIME_SYSTEM    = UTC
MEAN_ELEMENT_THEORY = SGP/SGP4

EPOCH          = 2026-03-15T13:58:49.105056
MEAN_MOTION    = 14.16598305
ECCENTRICITY   = .00097417
INCLINATION    = 71.0017
RA_OF_ASC_NODE = 128.1487
ARG_OF_PERICENTER = 252.5025
MEAN_ANOMALY   = 257.8190

EPHEMERIS_TYPE = 0
CLASSIFICATION_TYPE = U
NORAD_CAT_ID   = 16182
ELEMENT_SET_NO = 999
REV_AT_EPOCH   = 8806
BSTAR          = .57477107E-4
MEAN_MOTION_DOT = .67E-6
MEAN_MOTION_DDOT = 0

CCSDS_OMM_VERS = 2.0
CREATION_DATE  = 
ORIGINATOR     = 

OBJECT_NAME    = SL-14 R/B
OBJECT_ID      = 1986-006B
CENTER_NAME    = EARTH
REF_FRAME      = TEME
TIME_SYSTEM    = UTC
MEAN_ELEMENT_THEORY = SGP/SGP4

EPOCH          = 2026-03-15T12:14:27.678048
MEAN_MOTION    = 14.86823562
ECCENTRICITY   = .00751059
INCLINATION    = 82.5236
RA_OF_ASC_NODE = 254.2575
ARG_OF_PERICENTER = 253.1316
MEAN_ANOMALY   = 106.1656

EPHEMERIS_TYPE = 0
CLASSIFICATION_TYPE = U
NORAD_CAT_ID   = 16496
ELEMENT_SET_NO = 999
REV_AT_EPOCH   = 15007
BSTAR          = .71482975E-4
MEAN_MOTION_DOT = .696E-5
MEAN_MOTION_DDOT = 0

CCSDS_OMM_VERS = 2.0
CREATION_DATE  = 
ORIGINATOR     = 

OBJECT_NAME    = COSMOS 1743
OBJECT_ID      = 1986-034A
CENTER_NAME    = EARTH
REF_FRAME      = TEME
TIME_SYSTEM    = UTC
MEAN_ELEMENT_THEORY = SGP/SGP4

EPOCH          = 2026-03-15T11:36:42.901632
MEAN_MOTION    = 15.59010173
ECCENTRICITY   = .00017397
INCLINATION    = 82.5286
RA_OF_ASC_NODE = 67.7466
ARG_OF_PERICENTER = 235.7438
MEAN_ANOMALY   = 124.3653

EPHEMERIS_TYPE = 0
CLASSIFICATION_TYPE = U
NORAD_CAT_ID   = 16719
ELEMENT_SET_NO = 999
REV_AT_EPOCH   = 18115
BSTAR          = .44131026E-3
MEAN_MOTION_DOT = .34447E-3
MEAN_MOTION_DDOT = 0

